1 14725U 84016A   26055.73228852 -.00000051  00000-0  00000-0 0  9990
2 14725   8.7871 311.5287 0000453 125.2241  51.6508  1.00296562116978
1 14728U 84012C   26056.17122801  .00002396  00000-0  29399-3 0  9993
2 14728  63.3122 348.7654 0757538 126.4930 240.8367 13.74069480328250
1 14729U 84012D   26056.13065936  .00002605  00000-0  31148-3 0  9993
2 14729  63.3070 343.1650 0754510 126.4996 240.7997 13.75282155328498
1 14736U 81108G   26052.56766655  .00000088  00000-0  00000+0 0  9995
2 14736  71.5208 120.3370 4711263 325.8166  20.7067  2.00261698231009
1 14739U 81053JU  26056.07309051  .00001541  00000-0  96938-3 0  9994
2 14739  83.0045 288.3307 0054097 171.0614 189.1535 14.03044722246238
1 14740U 81053JV  26055.97060118  .00001489  00000-0  12080-2 0  9998
2 14740  83.1305  63.0582 0100260   1.8881  25.7101 13.87134902102352
1 14741U 81053JW  26056.18295193  .00000837  00000-0  10978-2 0  9996
2 14741  82.9637 221.1594 0152144  83.0931 328.7103 13.55608583187889
1 14759U 84019A   26056.16795806  .00000099  00000-0  44310-4 0  9993
2 14759  74.0396 124.4083 0021988 299.0479  60.8470 14.34490371196903
1 14760U 84019B   26056.18287943  .00000128  00000-0  51536-4 0  9996
2 14760  74.0413  54.3034 0028353 216.2901 143.6331 14.37167214199174
1 14780U 84021A   26055.73866561  .00001959  00000-0  13963-3 0  9994
2 14780  98.0716 330.0487 0070953 132.7102 228.0127 15.03872395774483
1 14781U 84021B   26055.85104095  .00001665  00000-0  17635-3 0  9999
2 14781  97.7924  22.7926 0007251 184.0720 176.0440 14.90451799240395
1 14783U 84022A   26055.72733457 -.00000060  00000-0  00000-0 0  9992
2 14783   9.5562 305.4372 0007732 300.2810 242.3325  1.00281874119899
1 14786U 84023A   26056.15549651 -.00000110  00000-0  00000+0 0  9990
2 14786  13.7322 338.5451 0018785 276.7318 251.5508  0.97292179 44873
1 14795U 84012F   26056.02300198  .00006078  00000-0  51237-3 0  9995
2 14795  63.2998 276.0736 0733219 124.6541 242.5878 13.88461126339083
1 14796U 84024D   26054.44797751  .00000095  00000-0  00000-0 0  9990
2 14796  71.5988  89.5240 4975401 334.4855 241.9532  2.02883817310792
1 14799U 76126BR  26055.37623390 -.00000098  00000-0 -35733-3 0  9996
2 14799  65.8096  94.7413 0873907  82.3798   9.3475 11.69533441806903
1 14800U 76126BS  26053.89024514  .00000184  00000-0  32034-2 0  9991
2 14800  65.7502 232.4706 0616017 123.3309 313.2508 11.50850279813648
1 14801U 75112D   26056.20443248  .00002305  00000-0  41726-3 0  9999
2 14801  74.0603 326.5756 0007831 221.1698 291.0781 14.66920813471873
1 14802U 77059C   26056.09872552  .00003497  00000-0  48518-3 0  9992
2 14802  74.0489  69.9189 0010783 223.7398 193.2020 14.78300648350538
1 14806U 79078D   26056.13361525  .00001655  00000-0  34231-3 0  9998
2 14806  74.0305 295.7295 0004630 174.5465 312.5888 14.61134514523537
1 14808U 80056C   26055.91374566  .00001064  00000-0  28170-3 0  9991
2 14808  74.0361 116.4481 0010891 104.8585 306.5948 14.49978941212678
1 14809U 80056D   26056.06425161  .00001313  00000-0  30685-3 0  9998
2 14809  74.0335 302.3097 0010139 253.5972 174.8872 14.55666015276053
1 14810U 81084D   26055.48592539  .00001474  00000-0  35237-3 0  9997
2 14810  73.9482  79.2836 0017511 247.5873 234.7975 14.54473105253657
1 14811U 82037D   26056.20210309  .00001069  00000-0  28066-3 0  9992
2 14811  74.0234  97.2169 0015487 144.1826 283.1007 14.50359840290227
1 14812U 83031C   26055.92702637  .00001074  00000-0  28348-3 0  9995
2 14812  74.0528 274.4241 0014401  64.0413 357.7357 14.50099960235837
1 14813U 83079C   26055.94724417  .00001130  00000-0  30409-3 0  9994
2 14813  74.0327 135.0765 0014335 162.5291 250.4685 14.49102031326962
1 14816U 76098C   26055.87328248  .00002845  00000-0  52760-3 0  9992
2 14816  74.0318 209.4448 0011206 181.0146 330.3267 14.65711269419737
1 14818U 77059D   26055.51371609  .00027826  00000-0  12763-2 0  9996
2 14818  74.0429 216.9137 0002160  58.9945   5.6328 15.20324545400478
1 14820U 84027B   26055.96631831  .00000397  00000-0  42623-4 0  9991
2 14820  82.5381 256.9493 0018455  20.3654 339.8294 14.85961242245747
1 14821U 84028A   26055.88917451 -.00000093  00000-0  00000+0 0  9991
2 14821  10.5203 313.4412 0004419 154.2700  38.9613  0.96062404132944
1 14839U 77065FU  26056.19511935  .00003012  00000-0  97634-2 0  9990
2 14839  28.9937  95.4550 0989656 340.0302  59.1567 11.92872566146425
1 14865U 75094E   26056.07150201  .00004823  00000-0  59473-3 0  9992
2 14865  74.0190  43.8416 0001834 264.3495 165.6246 14.83174973731921
1 14867U 84031A   26055.75552903 -.00000106  00000-0  00000-0 0  9994
2 14867   8.8922 312.1763 0025197  13.0408 178.2046  1.00257869 46242
1 14879U 74089ES  26055.31361776 -.00000057  00000-0 -17332-3 0  9992
2 14879 101.2846 349.4854 0214084 289.1745 225.7682 12.15607932543566
1 14880U 74089ET  26055.81937600 -.00000048  00000-0 -70154-4 0  9996
2 14880 101.2156   0.4931 0152665 235.4784 151.9383 12.30536250995576
1 14881U 74089EU  26055.84416706  .00000001  00000-0  32495-3 0  9991
2 14881 101.7702   7.8544 0066002 189.0309 196.6168 12.42207439 26520
1 14883U 73086GS  26055.51767567  .00000268  00000-0  34836-2 0  9992
2 14883 102.0058 268.8008 0247731 349.1219  37.9414 12.00222229614086
1 14884U 84033A   26053.75621957 -.00000685  00000-0  00000-0 0  9991
2 14884  72.9246 336.1567 5686247 253.8158  39.3675  2.00328151247039
1 14894U 84033D   26050.62666162 -.00000376  00000-0  00000-0 0  9999
2 14894  71.2478 289.7435 5715829 225.3133  70.8165  2.03818647250835
1 14899U 84035A   26055.62440175 -.00000315  00000-0  00000+0 0  9997
2 14899   9.6483 318.6027 0005642 197.2529 358.4530  1.00272281 46249
1 14900U 84035B   26052.72865571  .00000064  00000-0  69681-3 0  9993
2 14900  31.1109  10.4813 7156980 298.3917   8.5928  2.34914194289023
1 14904U 76077ES  26055.95616992  .00000009  00000-0  30241-3 0  9992
2 14904 102.7271 324.7371 0006643 282.5132 140.5245 12.73005177579004
1 14905U 76077ET  26056.13676447 -.00000178  00000-0 -14649-2 0  9997
2 14905 102.2717 118.0651 0185017 203.2002 218.5800 12.07375540904836
1 14906U 77121BK  26056.21071072  .00000254  00000-0  34307-3 0  9998
2 14906  65.9499  98.6057 0113621 171.3880 252.2412 13.73153628114992
1 14907U 77121BL  26055.01034072  .00000094  00000-0  24195-3 0  9991
2 14907  66.0252 256.2062 0064125 140.2040  14.9134 13.55079959186028
1 14908U 78026GH  26056.12453374  .00001652  00000-0  81235-3 0  9999
2 14908  99.0809 117.5012 0092003 126.9050 234.0598 14.16866869255753
1 14909U 78026GJ  26056.06668583  .00002686  00000-0  15357-2 0  9992
2 14909  98.7179 107.4743 0137384 158.5584 232.3670 14.05715247230446
1 14910U 78026GK  26055.58118762  .00001374  00000-0  58779-3 0  9998
2 14910  99.1037  31.0984 0016460 110.1929 315.0157 14.26606447175567
1 14913U 78026GN  26056.04658469  .00000930  00000-0  35654-3 0  9990
2 14913  98.7659  91.4256 0091529 136.8088 254.2422 14.30620476230640
1 14914U 78026GP  26056.09786606  .00001015  00000-0  31674-3 0  9994
2 14914  98.5644  90.9211 0041310 245.4039 178.6839 14.42500580301897
1 14919U 76067BG  26055.85224324 -.00000028  00000-0  91334-4 0  9993
2 14919  65.8039 199.3217 0719112 137.7751  14.4437 12.30398535620720
1 14925U 81053JX  26055.87082963  .00004418  00000-0  15672-2 0  9999
2 14925  82.8533  18.3629 0022055  44.1134 316.1809 14.34177948264527
1 14928U 83075F   26056.14627801  .00011689  00000-0  30047-3 0  9997
2 14928  97.8024  10.7010 0020755  84.5252 275.8359 15.39232014301553
1 14930U 84037A   26056.08598951 -.00000156  00000-0  00000+0 0  9995
2 14930  10.3979 316.6572 0009814 291.2904 243.1078  0.98680349 23880
1 14931U 84037B   26055.24765331 -.00000203  00000-0  00000-0 0  9995
2 14931   8.9975 311.8018 0032458 324.9399  34.8646  1.01166325 24799
1 14940U 84041A   26055.75656903 -.00000171  00000-0  00000-0 0  9994
2 14940   8.9601 313.0476 0005860 295.4429 260.6167  1.00319389120816
1 14943U 84041D   26056.15098981 -.00000027  00000-0  00000+0 0  9997
2 14943   9.7976 315.7373 0013692 226.3107 300.5771  0.98625923120170
1 14948U 84022F   26055.91547400 -.00000157  00000-0  00000+0 0  9993
2 14948   9.7000 305.8515 0021569 146.9706 195.6478  0.99880890160151
1 14950U 77117C   26056.11434856  .00000154  00000-0  81425-4 0  9997
2 14950  81.2489  78.0544 0033377 273.9384 149.5039 14.09103940476526
1 14951U 84031F   26055.47407381 -.00000021  00000-0  00000-0 0  9992
2 14951   9.2898 313.3409 0013897 261.0974 302.9866  0.99428416118689
1 14965U 84043A   26056.20255550  .00000053  00000-0  40834-4 0  9998
2 14965  82.9730 302.4746 0025171 334.0812 142.9686 13.73015640 94435
1 14966U 84043B   26056.09811134  .00000150  00000-0  14108-3 0  9994
2 14966  82.9698 272.4682 0015582 201.9564 277.3097 13.74873018 95897
1 14973U 84046A   26056.16630852  .00000064  00000-0  51158-4 0  9990
2 14973  82.9403 335.3439 0031060 224.3611 247.8646 13.75610722 96322
1 14974U 84046B   26056.18706895  .00000026  00000-0  10582-4 0  9998
2 14974  82.9361 300.0443 0046076 114.4280   5.4947 13.77164376 98846
1 14977U 84047A   26051.44377105 -.00000048  00000-0  00000-0 0  9999
2 14977  66.4193 331.9669 0017769 218.3868 341.8403  2.13100012101399
1 14978U 84047B   26052.26577687 -.00000051  00000-0  00000-0 0  9992
2 14978  66.4347 332.4223 0011707 173.6568 300.0411  2.13101693297038
1 14979U 84047C   26050.20535459 -.00000048  00000-0  00000+0 0  9991
2 14979  66.4681 333.6091 0009801 195.5068 294.6141  2.12912286324582
1 14985U 84049A   26054.16152564 -.00000298  00000-0  00000-0 0  9999
2 14985  14.3980 349.1756 0010891 251.4514 280.6322  0.99991867130162
1 14998U 84052A   26056.12661197 -.00000014  00000-0  16212-4 0  9994
2 14998  74.0162 330.6094 0026174 286.4601 139.7462 12.43978256895602
1 14999U 84052B   26055.94707359 -.00000005  00000-0  74997-4 0  9999
2 14999  74.0083 250.2627 0013865 189.0488 241.5267 12.46116501898853
1 15000U 84052C   26056.12423718 -.00000005  00000-0  74161-4 0  9991
2 15000  74.0130 179.4576 0014550  59.6957 121.7254 12.47989584901759
